{
  "type": "FeatureCollection",
  "features": [
    {
      "type": "Feature",
      "properties": {
        "norad_id": 30416,
        "name": "FENGYUN 1C DEB",
        "group": "fengyun-1c-debris",
        "lat": -43.99494462172133,
        "lon": -166.25184640241736,
        "alt_km": 875.2242431512586,
        "timestamp": "2025-12-24T07:45:06.475904+00:00",
        "meta_object_name": "FENGYUN 1C DEB",
        "meta_object_id": "1999-025AEF",
        "meta_epoch": "2025-12-23T18:42:15.417504",
        "meta_mean_motion": 14.02645606,
        "meta_eccentricity": 0.00558118,
        "meta_inclination": 98.8354,
        "meta_ra_of_asc_node": 21.8579,
        "meta_arg_of_pericenter": 159.1115,
        "meta_mean_anomaly": 201.235,
        "meta_ephemeris_type": 0,
        "meta_classification_type": "U",
        "meta_norad_cat_id": 30416,
        "meta_element_set_no": 999,
        "meta_rev_at_epoch": 96779,
        "meta_bstar": 0.00037715847,
        "meta_mean_motion_dot": 5.47e-06,
        "meta_mean_motion_ddot": 0,
        "tle_line1": "1 30416U 99025AEF 25357.77934511  .00000547  00000+0  37716-3 0  9990",
        "tle_line2": "2 30416  98.8354  21.8579 0055811 159.1115 201.2350 14.02645606967793"
      },
      "geometry": {
        "type": "Point",
        "coordinates": [
          -166.25184640241736,
          -43.99494462172133
        ]
      }
    },
    {
      "type": "Feature",
      "properties": {
        "norad_id": 30417,
        "name": "FENGYUN 1C DEB",
        "group": "fengyun-1c-debris",
        "lat": -42.20665304641518,
        "lon": 160.02554456949488,
        "alt_km": 883.055608214082,
        "timestamp": "2025-12-24T07:45:06.475914+00:00",
        "meta_object_name": "FENGYUN 1C DEB",
        "meta_object_id": "1999-025AEG",
        "meta_epoch": "2025-12-23T22:28:28.792704",
        "meta_mean_motion": 14.14674622,
        "meta_eccentricity": 0.00646408,
        "meta_inclination": 98.6937,
        "meta_ra_of_asc_node": 347.6258,
        "meta_arg_of_pericenter": 88.4582,
        "meta_mean_anomaly": 326.2272,
        "meta_ephemeris_type": 0,
        "meta_classification_type": "U",
        "meta_norad_cat_id": 30417,
        "meta_element_set_no": 999,
        "meta_rev_at_epoch": 97547,
        "meta_bstar": 0.00025833184,
        "meta_mean_motion_dot": 4.65e-06,
        "meta_mean_motion_ddot": 0,
        "tle_line1": "1 30417U 99025AEG 25357.93644436  .00000465  00000+0  25833-3 0  9999",
        "tle_line2": "2 30417  98.6937 347.6258 0064640  88.4582 326.2272 14.14674622975472"
      },
      "geometry": {
        "type": "Point",
        "coordinates": [
          160.02554456949488,
          -42.20665304641518
        ]
      }
    },
    {
      "type": "Feature",
      "properties": {
        "norad_id": 30418,
        "name": "FENGYUN 1C DEB",
        "group": "fengyun-1c-debris",
        "lat": 19.01963565412805,
        "lon": 156.28094734889228,
        "alt_km": 575.8505405005426,
        "timestamp": "2025-12-24T07:45:06.475924+00:00",
        "meta_object_name": "FENGYUN 1C DEB",
        "meta_object_id": "1999-025AEH",
        "meta_epoch": "2025-12-23T22:37:34.368096",
        "meta_mean_motion": 14.84353615,
        "meta_eccentricity": 0.01109559,
        "meta_inclination": 98.8413,
        "meta_ra_of_asc_node": 158.9354,
        "meta_arg_of_pericenter": 80.1232,
        "meta_mean_anomaly": 69.7037,
        "meta_ephemeris_type": 0,
        "meta_classification_type": "U",
        "meta_norad_cat_id": 30418,
        "meta_element_set_no": 999,
        "meta_rev_at_epoch": 758,
        "meta_bstar": 0.00073900247,
        "meta_mean_motion_dot": 6.858e-05,
        "meta_mean_motion_ddot": 0,
        "tle_line1": "1 30418U 99025AEH 25357.94275889  .00006858  00000+0  73900-3 0  9993",
        "tle_line2": "2 30418  98.8413 158.9354 0110955  80.1232  69.7037 14.84353615  7585"
      },
      "geometry": {
        "type": "Point",
        "coordinates": [
          156.28094734889228,
          19.01963565412805
        ]
      }
    },
    {
      "type": "Feature",
      "properties": {
        "norad_id": 30419,
        "name": "FENGYUN 1C DEB",
        "group": "fengyun-1c-debris",
        "lat": -64.38335477163227,
        "lon": 105.72980071277247,
        "alt_km": 849.8732243276136,
        "timestamp": "2025-12-24T07:45:06.475934+00:00",
        "meta_object_name": "FENGYUN 1C DEB",
        "meta_object_id": "1999-025AEJ",
        "meta_epoch": "2025-12-22T19:10:16.432320",
        "meta_mean_motion": 14.18071132,
        "meta_eccentricity": 0.0052788,
        "meta_inclination": 99.2418,
        "meta_ra_of_asc_node": 303.9948,
        "meta_arg_of_pericenter": 357.0942,
        "meta_mean_anomaly": 32.6547,
        "meta_ephemeris_type": 0,
        "meta_classification_type": "U",
        "meta_norad_cat_id": 30419,
        "meta_element_set_no": 999,
        "meta_rev_at_epoch": 97491,
        "meta_bstar": 0.00073117467,
        "meta_mean_motion_dot": 1.472e-05,
        "meta_mean_motion_ddot": 0,
        "tle_line1": "1 30419U 99025AEJ 25356.79880130  .00001472  00000+0  73117-3 0  9994",
        "tle_line2": "2 30419  99.2418 303.9948 0052788 357.0942  32.6547 14.18071132974913"
      },
      "geometry": {
        "type": "Point",
        "coordinates": [
          105.72980071277247,
          -64.38335477163227
        ]
      }
    },
    {
      "type": "Feature",
      "properties": {
        "norad_id": 30432,
        "name": "FENGYUN 1C DEB",
        "group": "fengyun-1c-debris",
        "lat": 75.02338127996524,
        "lon": 113.12624854488406,
        "alt_km": 803.1777417995272,
        "timestamp": "2025-12-24T07:45:06.475944+00:00",
        "meta_object_name": "FENGYUN 1C DEB",
        "meta_object_id": "1999-025AET",
        "meta_epoch": "2025-12-23T11:16:35.119488",
        "meta_mean_motion": 14.40726102,
        "meta_eccentricity": 0.00823688,
        "meta_inclination": 98.8354,
        "meta_ra_of_asc_node": 256.6935,
        "meta_arg_of_pericenter": 307.0761,
        "meta_mean_anomaly": 52.2916,
        "meta_ephemeris_type": 0,
        "meta_classification_type": "U",
        "meta_norad_cat_id": 30432,
        "meta_element_set_no": 999,
        "meta_rev_at_epoch": 98889,
        "meta_bstar": 0.00071636785,
        "meta_mean_motion_dot": 2.334e-05,
        "meta_mean_motion_ddot": 0,
        "tle_line1": "1 30432U 99025AET 25357.46985092  .00002334  00000+0  71637-3 0  9990",
        "tle_line2": "2 30432  98.8354 256.6935 0082368 307.0761  52.2916 14.40726102988892"
      },
      "geometry": {
        "type": "Point",
        "coordinates": [
          113.12624854488406,
          75.02338127996524
        ]
      }
    },
    {
      "type": "Feature",
      "properties": {
        "norad_id": 30434,
        "name": "FENGYUN 1C DEB",
        "group": "fengyun-1c-debris",
        "lat": -29.86287900239737,
        "lon": -10.002317912561812,
        "alt_km": 988.7278962897508,
        "timestamp": "2025-12-24T07:45:06.475954+00:00",
        "meta_object_name": "FENGYUN 1C DEB",
        "meta_object_id": "1999-025AEV",
        "meta_epoch": "2025-12-23T06:03:57.611232",
        "meta_mean_motion": 13.90659579,
        "meta_eccentricity": 0.01210799,
        "meta_inclination": 99.0002,
        "meta_ra_of_asc_node": 343.7401,
        "meta_arg_of_pericenter": 202.4569,
        "meta_mean_anomaly": 171.1889,
        "meta_ephemeris_type": 0,
        "meta_classification_type": "U",
        "meta_norad_cat_id": 30434,
        "meta_element_set_no": 999,
        "meta_rev_at_epoch": 95853,
        "meta_bstar": 0.00032619612,
        "meta_mean_motion_dot": 3.89e-06,
        "meta_mean_motion_ddot": 0,
        "tle_line1": "1 30434U 99025AEV 25357.25275013  .00000389  00000+0  32620-3 0  9991",
        "tle_line2": "2 30434  99.0002 343.7401 0121079 202.4569 171.1889 13.90659579958535"
      },
      "geometry": {
        "type": "Point",
        "coordinates": [
          -10.002317912561812,
          -29.86287900239737
        ]
      }
    },
    {
      "type": "Feature",
      "properties": {
        "norad_id": 30435,
        "name": "FENGYUN 1C DEB",
        "group": "fengyun-1c-debris",
        "lat": -76.86840911301626,
        "lon": 121.15135565872258,
        "alt_km": 1125.6691725545206,
        "timestamp": "2025-12-24T07:45:06.475964+00:00",
        "meta_object_name": "FENGYUN 1C DEB",
        "meta_object_id": "1999-025AEW",
        "meta_epoch": "2025-12-23T15:05:39.512256",
        "meta_mean_motion": 13.79658294,
        "meta_eccentricity": 0.02087038,
        "meta_inclination": 99.0177,
        "meta_ra_of_asc_node": 343.3878,
        "meta_arg_of_pericenter": 82.6974,
        "meta_mean_anomaly": 332.2864,
        "meta_ephemeris_type": 0,
        "meta_classification_type": "U",
        "meta_norad_cat_id": 30435,
        "meta_element_set_no": 999,
        "meta_rev_at_epoch": 94310,
        "meta_bstar": 0.0014475056,
        "meta_mean_motion_dot": 1.72e-05,
        "meta_mean_motion_ddot": 0,
        "tle_line1": "1 30435U 99025AEW 25357.62892954  .00001720  00000+0  14475-2 0  9999",
        "tle_line2": "2 30435  99.0177 343.3878 0208703  82.6974 332.2864 13.79658294943101"
      },
      "geometry": {
        "type": "Point",
        "coordinates": [
          121.15135565872258,
          -76.86840911301626
        ]
      }
    }
  ]
}